start=new Date('2022-09-28T00:00:00.000Z').valueOf();
sats=[{"MEAN_MOTION":"15.77153584","COUNTRY_CODE":"US","BSTAR":"-0.00763210000000","MEAN_MOTION_DOT":"-0.01140126","PERIOD":"91.304","ELEMENT_SET_NO":"999","REF_FRAME":"TEME","CENTER_NAME":"EARTH","MEAN_ANOMALY":"292.6770","ECCENTRICITY":"0.00057210","RA_OF_ASC_NODE":"214.8838","PERIAPSIS":"334.669","MEAN_MOTION_DDOT":"0.0000000000000","TLE_LINE2":"2 53847  53.2169 214.8838 0005721 269.5181 292.6770 15.77153584  1972","TLE_LINE1":"1 53847U 22114AF  22270.91668981 -.01140126  00000-0 -76321-2 0  9996","SITE":"AFETR","EPOCH":"2022-09-27T22:00:01.999584","GP_ID":"213643826","NORAD_CAT_ID":"53847","LAUNCH_DATE":"2022-09-19","CLASSIFICATION_TYPE":"U","SEMIMAJOR_AXIS":"6716.647","APOAPSIS":"342.354","REV_AT_EPOCH":"197","INCLINATION":"53.2169","RCS_SIZE":null,"FILE":"3585263","MEAN_ELEMENT_THEORY":"SGP4","DECAY_DATE":null,"EPHEMERIS_TYPE":"0","OBJECT_ID":"2022-114AF","TIME_SYSTEM":"UTC","OBJECT_TYPE":"PAYLOAD","ARG_OF_PERICENTER":"269.5181","OBJECT_NAME":"STARLINK-4777"},{"DECAY_DATE":null,"MEAN_ELEMENT_THEORY":"SGP4","OBJECT_ID":"2022-114AG","EPHEMERIS_TYPE":"0","OBJECT_NAME":"STARLINK-4780","TIME_SYSTEM":"UTC","OBJECT_TYPE":"PAYLOAD","ARG_OF_PERICENTER":"269.1863","LAUNCH_DATE":"2022-09-19","CLASSIFICATION_TYPE":"U","INCLINATION":"53.2169","RCS_SIZE":null,"SEMIMAJOR_AXIS":"6716.003","APOAPSIS":"341.676","REV_AT_EPOCH":"197","FILE":"3585263","PERIAPSIS":"334.059","MEAN_MOTION_DDOT":"0.0000000000000","ECCENTRICITY":"0.00056710","RA_OF_ASC_NODE":"214.8794","TLE_LINE1":"1 53848U 22114AG  22270.91668981 -.01338111  00000-0 -88643-2 0  9990","TLE_LINE2":"2 53848  53.2169 214.8794 0005671 269.1863 295.4289 15.77380454  1975","SITE":"AFETR","GP_ID":"213644091","EPOCH":"2022-09-27T22:00:01.999584","NORAD_CAT_ID":"53848","MEAN_MOTION":"15.77380454","COUNTRY_CODE":"US","BSTAR":"-0.00886430000000","MEAN_MOTION_DOT":"-0.01338111","PERIOD":"91.291","REF_FRAME":"TEME","CENTER_NAME":"EARTH","MEAN_ANOMALY":"295.4289","ELEMENT_SET_NO":"999"},{"PERIAPSIS":"334.670","MEAN_MOTION_DDOT":"0.0000000000000","RA_OF_ASC_NODE":"214.8825","ECCENTRICITY":"0.00054310","TLE_LINE1":"1 53849U 22114AH  22270.91668981 -.01182153  00000-0 -79252-2 0  9990","TLE_LINE2":"2 53849  53.2171 214.8825 0005431 269.4094 293.7640 15.77222052  1978","SITE":"AFETR","EPOCH":"2022-09-27T22:00:01.999584","GP_ID":"213643828","NORAD_CAT_ID":"53849","MEAN_MOTION":"15.77222052","COUNTRY_CODE":"US","BSTAR":"-0.00792520000000","MEAN_MOTION_DOT":"-0.01182153","PERIOD":"91.300","REF_FRAME":"TEME","CENTER_NAME":"EARTH","MEAN_ANOMALY":"293.7640","ELEMENT_SET_NO":"999","MEAN_ELEMENT_THEORY":"SGP4","DECAY_DATE":null,"EPHEMERIS_TYPE":"0","OBJECT_ID":"2022-114AH","OBJECT_NAME":"STARLINK-4770","TIME_SYSTEM":"UTC","OBJECT_TYPE":"PAYLOAD","ARG_OF_PERICENTER":"269.4094","LAUNCH_DATE":"2022-09-19","CLASSIFICATION_TYPE":"U","INCLINATION":"53.2171","RCS_SIZE":null,"SEMIMAJOR_AXIS":"6716.452","APOAPSIS":"341.965","REV_AT_EPOCH":"197","FILE":"3585263"},{"DECAY_DATE":null,"MEAN_ELEMENT_THEORY":"SGP4","EPHEMERIS_TYPE":"0","OBJECT_ID":"2022-114AJ","OBJECT_NAME":"STARLINK-4767","ARG_OF_PERICENTER":"269.7335","TIME_SYSTEM":"UTC","OBJECT_TYPE":"PAYLOAD","LAUNCH_DATE":"2022-09-19","CLASSIFICATION_TYPE":"U","RCS_SIZE":null,"INCLINATION":"53.2169","REV_AT_EPOCH":"197","APOAPSIS":"341.917","SEMIMAJOR_AXIS":"6715.853","FILE":"3585263","PERIAPSIS":"333.518","MEAN_MOTION_DDOT":"0.0000000000000","RA_OF_ASC_NODE":"214.8765","ECCENTRICITY":"0.00062530","TLE_LINE1":"1 53850U 22114AJ  22270.91668981 -.01338746  00000-0 -88439-2 0  9990","TLE_LINE2":"2 53850  53.2169 214.8765 0006253 269.7335 296.3721 15.77433331  1977","GP_ID":"213644083","EPOCH":"2022-09-27T22:00:01.999584","SITE":"AFETR","NORAD_CAT_ID":"53850","MEAN_MOTION":"15.77433331","COUNTRY_CODE":"US","PERIOD":"91.288","BSTAR":"-0.00884390000000","MEAN_MOTION_DOT":"-0.01338746","MEAN_ANOMALY":"296.3721","CENTER_NAME":"EARTH","REF_FRAME":"TEME","ELEMENT_SET_NO":"999"},{"FILE":"3585263","REV_AT_EPOCH":"197","APOAPSIS":"341.701","SEMIMAJOR_AXIS":"6716.126","RCS_SIZE":null,"INCLINATION":"53.2170","CLASSIFICATION_TYPE":"U","LAUNCH_DATE":"2022-09-19","ARG_OF_PERICENTER":"268.9764","TIME_SYSTEM":"UTC","OBJECT_TYPE":"PAYLOAD","OBJECT_NAME":"STARLINK-4755","OBJECT_ID":"2022-114AK","EPHEMERIS_TYPE":"0","DECAY_DATE":null,"MEAN_ELEMENT_THEORY":"SGP4","ELEMENT_SET_NO":"999","CENTER_NAME":"EARTH","MEAN_ANOMALY":"295.1545","REF_FRAME":"TEME","PERIOD":"91.293","BSTAR":"-0.00861450000000","MEAN_MOTION_DOT":"-0.01278706","COUNTRY_CODE":"US","MEAN_MOTION":"15.77337143","NORAD_CAT_ID":"53851","GP_ID":"213643821","EPOCH":"2022-09-27T22:00:01.999584","SITE":"AFETR","TLE_LINE2":"2 53851  53.2170 214.8803 0005524 268.9764 295.1545 15.77337143  1975","TLE_LINE1":"1 53851U 22114AK  22270.91668981 -.01278706  00000-0 -86145-2 0  9992","ECCENTRICITY":"0.00055240","RA_OF_ASC_NODE":"214.8803","MEAN_MOTION_DDOT":"0.0000000000000","PERIAPSIS":"334.281"},{"SITE":"AFETR","GP_ID":"213644102","EPOCH":"2022-09-27T22:00:01.999584","NORAD_CAT_ID":"53852","ECCENTRICITY":"0.00059460","RA_OF_ASC_NODE":"214.8747","PERIAPSIS":"333.596","MEAN_MOTION_DDOT":"0.0000000000000","TLE_LINE2":"2 53852  53.2170 214.8747 0005946 269.6051 297.4874 15.77478726  1971","TLE_LINE1":"1 53852U 22114AL  22270.91668981 -.01351733  00000-0 -89237-2 0  9990","MEAN_MOTION_DOT":"-0.01351733","BSTAR":"-0.00892370000000","PERIOD":"91.285","ELEMENT_SET_NO":"999","REF_FRAME":"TEME","MEAN_ANOMALY":"297.4874","CENTER_NAME":"EARTH","MEAN_MOTION":"15.77478726","COUNTRY_CODE":"US","EPHEMERIS_TYPE":"0","OBJECT_ID":"2022-114AL","OBJECT_TYPE":"PAYLOAD","TIME_SYSTEM":"UTC","ARG_OF_PERICENTER":"269.6051","OBJECT_NAME":"STARLINK-4797","DECAY_DATE":null,"MEAN_ELEMENT_THEORY":"SGP4","APOAPSIS":"341.582","SEMIMAJOR_AXIS":"6715.724","REV_AT_EPOCH":"197","INCLINATION":"53.2170","RCS_SIZE":null,"FILE":"3585255","LAUNCH_DATE":"2022-09-19","CLASSIFICATION_TYPE":"U"},{"MEAN_MOTION":"15.77311455","COUNTRY_CODE":"US","MEAN_MOTION_DOT":"-0.01202561","BSTAR":"-0.00804330000000","PERIOD":"91.295","REF_FRAME":"TEME","CENTER_NAME":"EARTH","MEAN_ANOMALY":"296.2717","ELEMENT_SET_NO":"999","PERIAPSIS":"334.052","MEAN_MOTION_DDOT":"0.0000000000000","RA_OF_ASC_NODE":"214.8786","ECCENTRICITY":"0.00059730","TLE_LINE1":"1 53853U 22114AM  22270.91668981 -.01202561  00000-0 -80433-2 0  9994","TLE_LINE2":"2 53853  53.2172 214.8786 0005973 268.8784 296.2717 15.77311455  1306","SITE":"AFETR","GP_ID":"213669930","EPOCH":"2022-09-27T22:00:01.999584","NORAD_CAT_ID":"53853","LAUNCH_DATE":"2022-09-19","CLASSIFICATION_TYPE":"U","RCS_SIZE":null,"INCLINATION":"53.2172","APOAPSIS":"342.075","SEMIMAJOR_AXIS":"6716.199","REV_AT_EPOCH":"130","FILE":"3585280","DECAY_DATE":null,"MEAN_ELEMENT_THEORY":"SGP4","OBJECT_ID":"2022-114AM","EPHEMERIS_TYPE":"0","OBJECT_NAME":"STARLINK-4794","TIME_SYSTEM":"UTC","OBJECT_TYPE":"PAYLOAD","ARG_OF_PERICENTER":"268.8784"},{"FILE":"3585255","RCS_SIZE":null,"INCLINATION":"53.2171","REV_AT_EPOCH":"197","APOAPSIS":"341.046","SEMIMAJOR_AXIS":"6715.832","CLASSIFICATION_TYPE":"U","LAUNCH_DATE":"2022-09-19","OBJECT_NAME":"STARLINK-4800","ARG_OF_PERICENTER":"268.1071","TIME_SYSTEM":"UTC","OBJECT_TYPE":"PAYLOAD","EPHEMERIS_TYPE":"0","OBJECT_ID":"2022-114AN","MEAN_ELEMENT_THEORY":"SGP4","DECAY_DATE":null,"MEAN_ANOMALY":"300.0128","CENTER_NAME":"EARTH","REF_FRAME":"TEME","ELEMENT_SET_NO":"999","PERIOD":"91.287","MEAN_MOTION_DOT":"-0.01234132","BSTAR":"-0.00824000000000","COUNTRY_CODE":"US","MEAN_MOTION":"15.77440581","NORAD_CAT_ID":"53854","EPOCH":"2022-09-27T22:00:01.999584","GP_ID":"213643832","SITE":"AFETR","TLE_LINE1":"1 53854U 22114AN  22270.91668981 -.01234132  00000-0 -82400-2 0  9990","TLE_LINE2":"2 53854  53.2171 214.8729 0004987 268.1071 300.0128 15.77440581  1975","PERIAPSIS":"334.348","MEAN_MOTION_DDOT":"0.0000000000000","RA_OF_ASC_NODE":"214.8729","ECCENTRICITY":"0.00049870"},{"SITE":"AFETR","GP_ID":"213669944","EPOCH":"2022-09-28T01:41:40.914816","NORAD_CAT_ID":"53855","MEAN_MOTION_DDOT":"0.0000000000000","PERIAPSIS":"331.680","ECCENTRICITY":"0.00096200","RA_OF_ASC_NODE":"214.0641","TLE_LINE1":"1 53855U 22114AP  22271.07061244  .00016181  00000-0  10000-3 0  9995","TLE_LINE2":"2 53855  53.1927 214.0641 0009620 306.5142  53.5533 15.77284096  1993","BSTAR":"0.00010000000000","MEAN_MOTION_DOT":"0.00016181","PERIOD":"91.296","REF_FRAME":"TEME","CENTER_NAME":"EARTH","MEAN_ANOMALY":"53.5533","ELEMENT_SET_NO":"999","MEAN_MOTION":"15.77284096","COUNTRY_CODE":"US","OBJECT_ID":"2022-114AP","EPHEMERIS_TYPE":"0","OBJECT_NAME":"STARLINK-4703","TIME_SYSTEM":"UTC","OBJECT_TYPE":"PAYLOAD","ARG_OF_PERICENTER":"306.5142","DECAY_DATE":null,"MEAN_ELEMENT_THEORY":"SGP4","INCLINATION":"53.1927","RCS_SIZE":null,"APOAPSIS":"344.602","SEMIMAJOR_AXIS":"6716.276","REV_AT_EPOCH":"199","FILE":"3585288","LAUNCH_DATE":"2022-09-19","CLASSIFICATION_TYPE":"U"},{"TLE_LINE1":"1 53856U 22114AQ  22270.91668981 -.01292168  00000-0 -86259-2 0  9991","TLE_LINE2":"2 53856  53.2169 214.8673 0005442 268.8884 301.6842 15.77573003  1974","PERIAPSIS":"333.667","MEAN_MOTION_DDOT":"0.0000000000000","ECCENTRICITY":"0.00054420","RA_OF_ASC_NODE":"214.8673","NORAD_CAT_ID":"53856","SITE":"AFETR","EPOCH":"2022-09-27T22:00:01.999584","GP_ID":"213644111","COUNTRY_CODE":"US","MEAN_MOTION":"15.77573003","REF_FRAME":"TEME","MEAN_ANOMALY":"301.6842","CENTER_NAME":"EARTH","ELEMENT_SET_NO":"999","BSTAR":"-0.00862590000000","MEAN_MOTION_DOT":"-0.01292168","PERIOD":"91.279","DECAY_DATE":null,"MEAN_ELEMENT_THEORY":"SGP4","OBJECT_NAME":"STARLINK-4795","OBJECT_TYPE":"PAYLOAD","TIME_SYSTEM":"UTC","ARG_OF_PERICENTER":"268.8884","EPHEMERIS_TYPE":"0","OBJECT_ID":"2022-114AQ","CLASSIFICATION_TYPE":"U","LAUNCH_DATE":"2022-09-19","FILE":"3585256","RCS_SIZE":null,"INCLINATION":"53.2169","APOAPSIS":"340.976","SEMIMAJOR_AXIS":"6715.456","REV_AT_EPOCH":"197"}];
